[{"OBJECT_NAME":"QIANFAN-108","OBJECT_ID":"2025-233T","EPOCH":"2026-03-09T23:01:03.139104","MEAN_MOTION":13.51004974,"ECCENTRICITY":0.00023475,"INCLINATION":88.9939,"RA_OF_ASC_NODE":53.2029,"ARG_OF_PERICENTER":83.358,"MEAN_ANOMALY":276.7839,"EPHEMERIS_TYPE":0,"CLASSIFICATION_TYPE":"U","NORAD_CAT_ID":66050,"ELEMENT_SET_NO":999,"REV_AT_EPOCH":1979,"BSTAR":5.0258129e-5,"MEAN_MOTION_DOT":4.4e-7,"MEAN_MOTION_DDOT":0},{"OBJECT_NAME":"SCOUT A R\/B","OBJECT_ID":"1967-034B","EPOCH":"2026-03-09T21:45:42.772320","MEAN_MOTION":13.54008679,"ECCENTRICITY":0.00235692,"INCLINATION":90.2658,"RA_OF_ASC_NODE":53.3823,"ARG_OF_PERICENTER":282.465,"MEAN_ANOMALY":136.1318,"EPHEMERIS_TYPE":0,"CLASSIFICATION_TYPE":"U","NORAD_CAT_ID":2755,"ELEMENT_SET_NO":999,"REV_AT_EPOCH":90860,"BSTAR":-5.5172606e-5,"MEAN_MOTION_DOT":-2.9e-7,"MEAN_MOTION_DDOT":0}]
